ONEWEB-0328             
1 49197U 21083M   25312.61110919  .00000243  00000+0  63024-3 0  9991
2 49197  87.9024   4.0413 0001845  93.5740 266.5600 13.13469695201948
ONEWEB-0331             
1 49198U 21083N   25312.65021830  .00000044  00000+0  78477-4 0  9997
2 49198  87.9227  19.2482 0001497  95.0109 265.1194 13.18687152200944
ONEWEB-0333             
1 49199U 21083P   25312.83456100  .00000379  00000+0  10042-2 0  9993
2 49199  87.9010   4.0556 0001835 100.9139 259.2197 13.13468722201981
ONEWEB-0334             
1 49200U 21083Q   25312.46302233 -.00000024  00000+0 -90467-4 0  9992
2 49200  87.9183 318.4837 0002697 105.8067 254.3363 13.20771490207658
ONEWEB-0335             
1 49201U 21083R   25312.60094990  .00000346  00000+0  91270-3 0  9994
2 49201  87.9012   4.0902 0001608  95.6593 264.4719 13.13468727201965
ONEWEB-0336             
1 49202U 21083S   25312.57215764 -.00000342  00000+0 -97166-3 0  9993
2 49202  87.9004   4.0902 0001481  89.2599 270.8699 13.13470240201951
ONEWEB-0337             
1 49203U 21083T   25312.58217601 -.00000151  00000+0 -44925-3 0  9990
2 49203  87.9019   4.0984 0001794  90.9970 269.1365 13.13470186201957
ONEWEB-0338             
1 49204U 21083U   25312.74078049  .00000057  00000+0  10826-3 0  9996
2 49204  87.9181 318.4301 0002100  95.8210 264.3163 13.20769690207718
ONEWEB-0339             
1 49205U 21083V   25312.59079752  .00000287  00000+0  75196-3 0  9998
2 49205  87.9021   4.0793 0002033  96.6086 263.5274 13.13470849201939
ONEWEB-0340             
1 49206U 21083W   25312.63701441  .00000080  00000+0  17114-3 0  9998
2 49206  87.9223  19.2553 0001753  99.9424 260.1906 13.18687999200908
ONEWEB-0341             
1 49207U 21083X   25312.64361128  .00000035  00000+0  55421-4 0  9998
2 49207  87.9226  19.2661 0001968  84.1491 275.9866 13.18688304200922
ONEWEB-0342             
1 49208U 21083Y   25312.74709716  .00000136  00000+0  30202-3 0  9990
2 49208  87.9191 318.3978 0001959  92.7658 267.3699 13.20773044207686
ONEWEB-0343             
1 49209U 21083Z   25312.65187045  .00000039  00000+0  66172-4 0  9994
2 49209  87.9224  19.2559 0002287  91.0129 269.1265 13.18685843200976
ONEWEB-0344             
1 49210U 21083AA  25312.58571463  .00000220  00000+0  56837-3 0  9997
2 49210  87.9010   4.1149 0001863  85.1850 274.9492 13.13470941201932
ONEWEB-0345             
1 49211U 21083AB  25312.57725176  .00000001  00000+0 -31844-4 0  9999
2 49211  87.9016   4.0735 0001923  87.0168 273.1181 13.13469707201944
ONEWEB-0346             
1 49212U 21083AC  25312.64855352  .00000016  00000+0  78603-5 0  9998
2 49212  87.9222  19.2732 0001206 105.0801 255.0464 13.18687982200919
ONEWEB-0348             
1 49213U 21083AD  25312.73762694  .00000141  00000+0  31562-3 0  9995
2 49213  87.9179 318.4090 0001542  73.3887 286.7415 13.20772132207713
ONEWEB-0350             
1 49214U 21083AE  25312.43419792  .00000276  00000+0  72008-3 0  9990
2 49214  87.9020   4.0988 0001782  87.9236 272.2097 13.13471791201953
ONEWEB-0351             
1 49215U 21083AF  25312.73118697  .00000072  00000+0  14605-3 0  9997
2 49215  87.9189 318.4035 0002748  91.5994 268.5454 13.20770282207675
ONEWEB-0352             
1 49216U 21083AG  25312.41473639 -.00000226  00000+0 -65486-3 0  9999
2 49216  87.9009   4.1291 0002280  98.8521 261.2866 13.13469370202045
ONEWEB-0354             
1 49217U 21083AH  25312.45354547  .00000083  00000+0  17265-3 0  9991
2 49217  87.9190 318.4578 0001770  81.9894 278.1440 13.20771955207677
ONEWEB-0355             
1 49218U 21083AJ  25312.44366162  .00000376  00000+0  99459-3 0  9997
2 49218  87.9017   4.1356 0002003  93.2361 266.8997 13.13470170201924
ONEWEB-0357             
1 49219U 21083AK  25312.45039227  .00000036  00000+0  55563-4 0  9990
2 49219  87.9193 318.4553 0002026  88.4902 271.6463 13.20771394207672
ONEWEB-0332             
1 49279U 21090A   25312.47705632 -.00000272  00000+0 -76861-3 0  9993
2 49279  87.8988 333.6915 0001986 100.3791 259.7563 13.14503856198580
ONEWEB-0347             
1 49280U 21090B   25312.44091434  .00000072  00000+0  14500-3 0  9998
2 49280  87.9182 318.4696 0001882 102.0787 258.0557 13.20770386201902
ONEWEB-0349             
1 49281U 21090C   25312.47248868  .00000282  00000+0  66218-3 0  9993
2 49281  87.9183 318.4628 0001859  91.1251 269.0096 13.20771954200694
ONEWEB-0353             
1 49282U 21090D   25312.46911778 -.00000175  00000+0 -50725-3 0  9999
2 49282  87.8990 333.6755 0001926 100.8277 259.3070 13.14500813198586
ONEWEB-0356             
1 49283U 21090E   25312.47090531 -.00000097  00000+0 -26941-3 0  9992
2 49283  87.9186 318.4540 0001257 111.8499 248.2768 13.20771757200694
ONEWEB-0358             
1 49284U 21090F   25312.42513610  .00000068  00000+0  13471-3 0  9996
2 49284  87.9194 318.4622 0001724  90.6631 269.4700 13.20772309201412
ONEWEB-0359             
1 49285U 21090G   25312.72503200  .00001323  00000+0  32221-2 0  9992
2 49285  87.9230 318.4053 0002345  81.5163 278.6235 13.20746073201437
ONEWEB-0360             
1 49286U 21090H   25312.71553593  .00000032  00000+0  46409-4 0  9993
2 49286  87.9184 318.4153 0001877  87.3629 272.7719 13.20770260200747
ONEWEB-0361             
1 49287U 21090J   25312.46931821  .00000031  00000+0  44754-4 0  9990
2 49287  87.9184 318.4600 0001684  93.1964 266.9362 13.20770879201160
ONEWEB-0362             
1 49288U 21090K   25312.55036321  .00000034  00000+0  52843-4 0  9993
2 49288  87.9219 348.8894 0002102  92.8131 267.3243 13.19726462197816
ONEWEB-0363             
1 49289U 21090L   25312.71236164 -.00000085  00000+0 -24161-3 0  9998
2 49289  87.9189 318.4081 0001520  95.2289 264.9018 13.20771662201204
ONEWEB-0364             
1 49290U 21090M   25312.75026112  .00000113  00000+0  24583-3 0  9992
2 49290  87.9177 318.4260 0001685  93.4097 266.7229 13.20772631202348
ONEWEB-0365             
1 49291U 21090N   25312.33238977  .00000024  00000+0  27867-4 0  9991
2 49291  87.9237 348.8927 0001961  97.5612 262.5743 13.19726624197299
ONEWEB-0366             
1 49292U 21090P   25312.46595492 -.00000077  00000+0 -24324-3 0  9998
2 49292  87.8994 333.6950 0001785  93.3407 266.7926 13.14504062198562
ONEWEB-0367             
1 49293U 21090Q   25312.71079943  .00000040  00000+0  66865-4 0  9990
2 49293  87.9192 318.4063 0002067  90.5308 269.6062 13.20772355200727
ONEWEB-0368             
1 49294U 21090R   25312.45670007  .00000037  00000+0  59205-4 0  9996
2 49294  87.9180 318.4901 0001828 116.0615 244.0707 13.20772264201841
ONEWEB-0369             
1 49295U 21090S   25312.55510458 -.00000026  00000+0 -98006-4 0  9993
2 49295  87.9228 348.8785 0001923  97.6453 262.4898 13.19725666197315
ONEWEB-0370             
1 49296U 21090T   25312.49300066 -.00000068  00000+0 -19975-3 0  9992
2 49296  87.9186 318.4569 0002020  82.5476 277.5887 13.20772475200737
ONEWEB-0371             
1 49297U 21090U   25312.48718733  .00000007  00000+0 -14648-4 0  9991
2 49297  87.9229 348.8793 0001989  95.8214 264.3145 13.19726458197343
ONEWEB-0372             
1 49298U 21090V   25312.70909002 -.00000085  00000+0 -24017-3 0  9995
2 49298  87.9180 318.4149 0001943  93.7161 266.4195 13.20771887200730
ONEWEB-0373             
1 49299U 21090W   25312.43302936  .00000083  00000+0  17142-3 0  9996
2 49299  87.9180 318.4832 0001765  88.8367 271.2969 13.20771370201882
ONEWEB-0374             
1 49300U 21090X   25312.45327500  .00000081  00000+0  18428-3 0  9991
2 49300  87.9000 333.6736 0001426 107.7289 252.3996 13.14501387198568
ONEWEB-0375             
1 49301U 21090Y   25312.72342926  .00000027  00000+0  35040-4 0  9991
2 49301  87.9183 318.4056 0001302  88.6695 271.4587 13.20771016201421
ONEWEB-0376             
1 49302U 21090Z   25312.56141846 -.00000017  00000+0 -75929-4 0  9993
2 49302  87.9236 348.8501 0002078 100.0729 260.0638 13.19724506197358
ONEWEB-0377             
1 49303U 21090AA  25312.48209291 -.00000029  00000+0 -10333-3 0  9994
2 49303  87.9191 318.4519 0001825  85.3024 274.8318 13.20772003201387
ONEWEB-0378             
1 49304U 21090AB  25312.73146231  .00000153  00000+0  34508-3 0  9993
2 49304  87.9186 318.4171 0001703  92.1754 267.9575 13.20773195200680
ONEWEB-0379             
1 49305U 21090AC  25312.75299205  .00000216  00000+0  54697-3 0  9997
2 49305  87.9000 333.6226 0001824  97.8287 262.3050 13.14501860198609
ONEWEB-0380             
1 49306U 21090AD  25312.55826317  .00000071  00000+0  14555-3 0  9994
2 49306  87.9231 348.8746 0001690  92.7231 267.4095 13.19726748197327
ONEWEB-0381             
1 49307U 21090AE  25312.47879765 -.00000032  00000+0 -11101-3 0  9994
2 49307  87.9183 318.4574 0001597  89.9193 270.2124 13.20772340200698
ONEWEB-0382             
1 49308U 21090AF  25312.46617509 -.00000032  00000+0 -11066-3 0  9990
2 49308  87.9193 318.4534 0001569  95.8576 264.2736 13.20771486200687
ONEWEB-0383             
1 49309U 21090AG  25312.51828821  .00000210  00000+0  53288-3 0  9996
2 49309  87.9006 333.6530 0001746  99.3895 260.7432 13.14504330198603
ONEWEB-0384             
1 49310U 21090AH  25312.46025812  .00000034  00000+0  51746-4 0  9993
2 49310  87.9201 318.4873 0001444 104.3404 255.7890 13.20796555200695
ONEWEB-0385             
1 49311U 21090AJ  25312.45826507 -.00000230  00000+0 -59883-3 0  9992
2 49311  87.9183 318.4628 0001690  93.4235 266.7091 13.20773701200666
ONEWEB-0386             
1 49312U 21090AK  25312.47563793 -.00000080  00000+0 -22909-3 0  9992
2 49312  87.9190 318.4405 0001642  96.9947 263.1373 13.20771526200682
ONEWEB-0387             
1 49313U 21090AL  25312.45986050 -.00000033  00000+0 -11258-3 0  9999
2 49313  87.9180 318.4921 0001621  84.2833 275.8485 13.20771015200683
ONEWEB-0388             
1 49314U 21090AM  25312.40189223 -.00000072  00000+0 -21198-3 0  9999
2 49314  87.9220 348.9096 0001700  98.4229 261.7097 13.19726216197290
